OBJECT_NAME,OBJECT_ID,EPOCH,MEAN_MOTION,ECCENTRICITY,INCLINATION,RA_OF_ASC_NODE,ARG_OF_PERICENTER,MEAN_ANOMALY,EPHEMERIS_TYPE,CLASSIFICATION_TYPE,NORAD_CAT_ID,ELEMENT_SET_NO,REV_AT_EPOCH,BSTAR,MEAN_MOTION_DOT,MEAN_MOTION_DDOT
GLOBALSTAR M069,2007-020C,2026-07-19T07:37:53.854752,12.23472365,.00015355,52.0011,161.1821,218.8316,291.1387,0,U,31573,999,88273,.25664619E-3,-.65E-6,0
GLOBALSTAR M072,2007-020D,2026-07-19T04:51:28.452960,11.91658787,.00016498,51.9950,15.0121,42.9418,127.9082,0,U,31574,999,87879,-.51975686E-4,-.88E-6,0
GLOBALSTAR M066,2007-048C,2026-07-19T07:36:22.714848,12.30389984,.00055413,51.9612,325.6785,110.0250,266.3848,0,U,32265,999,86418,.47953495E-3,-.38E-6,0
GLOBALSTAR M079,2010-054A,2026-07-18T21:52:53.584320,12.62266401,.0001129,52.0054,12.0956,83.7766,80.3936,0,U,37188,999,72655,-.25508987E-4,-.108E-5,0
GLOBALSTAR M074,2010-054B,2026-07-19T06:09:10.998720,12.62262067,.00008565,52.0035,10.3070,98.7148,72.2570,0,U,37189,999,72720,-.19249372E-4,-.107E-5,0
GLOBALSTAR M076,2010-054C,2026-07-19T04:53:14.858880,12.62262553,.00010955,52.0050,10.6737,97.6061,73.5333,0,U,37190,999,72691,.65293786E-4,-.92E-6,0
GLOBALSTAR M077,2010-054D,2026-07-18T21:20:08.006784,11.67547245,.00021985,51.9961,98.8316,231.8864,208.0459,0,U,37191,999,72484,-.43079622E-3,-.101E-5,0
GLOBALSTAR M075,2010-054E,2026-07-19T01:21:50.533632,12.62267888,.00007819,51.9955,53.1567,70.6238,93.6683,0,U,37192,999,72596,.18153493E-4,-.101E-5,0
GLOBALSTAR M073,2010-054F,2026-07-19T01:24:47.153376,12.62266947,.00010172,52.0081,327.2763,101.9627,69.9281,0,U,37193,999,72795,.46243838E-4,-.95E-6,0
GLOBALSTAR M083,2011-033A,2026-07-19T04:45:08.263584,12.62264346,.00007013,51.9858,275.0389,110.3248,275.3725,0,U,37739,999,69699,.1119529E-3,-.84E-6,0
GLOBALSTAR M088,2011-033B,2026-07-19T02:29:33.376128,12.62269478,.00001114,52.0190,181.8282,44.5486,31.8391,0,U,37740,999,69252,-.38031887E-4,-.111E-5,0
GLOBALSTAR M091,2011-033C,2026-07-19T05:02:06.078912,12.62264247,.00005204,51.9986,144.4239,31.8856,106.6630,0,U,37741,999,69332,.62743409E-4,-.93E-6,0
GLOBALSTAR M085,2011-033D,2026-07-19T04:51:55.433088,12.62264435,.00008602,52.0128,95.7659,47.6871,118.7345,0,U,37742,999,69383,.11143185E-3,-.84E-6,0
GLOBALSTAR M081,2011-033E,2026-07-19T05:33:03.312576,12.62265336,.00007463,51.9959,98.0785,60.1551,115.9987,0,U,37743,999,69398,.84119264E-4,-.89E-6,0
GLOBALSTAR M089,2011-033F,2026-07-19T00:43:52.921632,12.62267620,.00007151,51.9940,52.8424,92.5063,71.8065,0,U,37744,999,69480,.24624168E-4,-.99E-6,0
GLOBALSTAR M084,2011-080A,2026-07-19T06:03:36.758592,12.62263663,.00007399,52.0014,279.6666,136.7218,256.7974,0,U,38040,999,67281,.99995382E-4,-.86E-6,0
GLOBALSTAR M080,2011-080B,2026-07-18T06:27:32.350752,12.62257576,.00002974,52.0065,284.3895,76.7380,295.7039,0,U,38041,999,67281,.12419676E-3,-.82E-6,0
GLOBALSTAR M082,2011-080C,2026-07-19T05:57:48.358368,12.62264311,.00001844,52.0054,236.9119,64.4965,10.4444,0,U,38042,999,67364,-.527685E-6,-.104E-5,0
GLOBALSTAR M092,2011-080D,2026-07-19T06:54:43.638912,12.62267896,.00007287,52.0105,327.1892,108.9810,265.0801,0,U,38043,999,67210,.11259608E-3,-.84E-6,0
GLOBALSTAR M090,2011-080E,2026-07-19T02:35:02.839200,12.62269626,.00003895,52.0097,231.3063,84.6502,308.9923,0,U,38044,999,67374,.37299333E-4,-.97E-6,0
GLOBALSTAR M086,2011-080F,2026-07-19T03:05:46.216032,12.62287881,.00014376,51.9874,231.1181,117.4055,277.2188,0,U,38045,999,67369,-.20099104E-4,-.107E-5,0
GLOBALSTAR M097,2013-005A,2026-07-19T05:34:40.954944,12.62271305,.00005229,52.0031,145.7861,44.1510,315.9399,0,U,39072,999,62095,.14441549E-4,-.101E-5,0
GLOBALSTAR M093,2013-005B,2026-07-19T04:56:09.842208,12.62266357,.00007481,52.0096,139.2271,50.0977,309.9955,0,U,39073,999,62090,.79894857E-4,-.89E-6,0
GLOBALSTAR M094,2013-005C,2026-07-19T01:07:54.629184,12.62264237,.00010355,51.9968,53.7951,68.6970,291.4007,0,U,39074,999,62249,.45405163E-4,-.96E-6,0
GLOBALSTAR M096,2013-005D,2026-07-18T23:33:21.628512,12.62265811,.00008072,52.0075,102.8215,49.9335,310.1602,0,U,39075,999,62140,.12914472E-3,-.81E-6,0
GLOBALSTAR M078,2013-005E,2026-07-19T02:42:43.973280,12.62260103,.0000928,51.9845,186.3872,349.4687,10.6160,0,U,39076,999,62004,-.6959308E-4,-.116E-5,0
GLOBALSTAR M095,2013-005F,2026-07-19T05:15:09.891072,12.62264091,.00005449,52.0053,183.7136,19.4933,340.5955,0,U,39077,999,61991,-.58653338E-4,-.114E-5,0
GLOBALSTAR M087,2022-064A,2026-07-19T07:28:02.747424,12.62269416,.00008989,52.0017,324.6537,90.0833,270.0137,0,U,52888,999,19519,.88492307E-4,-.88E-6,0
